OBJECT_NAME,OBJECT_ID,EPOCH,MEAN_MOTION,ECCENTRICITY,INCLINATION,RA_OF_ASC_NODE,ARG_OF_PERICENTER,MEAN_ANOMALY,EPHEMERIS_TYPE,CLASSIFICATION_TYPE,NORAD_CAT_ID,ELEMENT_SET_NO,REV_AT_EPOCH,BSTAR,MEAN_MOTION_DOT,MEAN_MOTION_DDOT
ONEWEB-0522,2022-138AD,2026-07-12T05:42:27.006912,13.19745780,.000252,87.9187,299.9748,104.5299,255.6113,0,U,54140,999,18011,.53012E-2,.2136E-4,0
ONEWEB-0523,2022-138AE,2026-07-12T04:20:01.246272,13.20772709,.00023553,87.9187,269.4615,81.1786,278.9614,0,U,54141,999,18260,.84650502E-4,.47E-6,0
ONEWEB-0524,2022-138AF,2026-07-12T13:10:55.859232,13.20772708,.00029424,87.9191,269.3841,93.4917,266.6553,0,U,54142,999,18265,.30932223E-3,.139E-5,0
ONEWEB-0525,2022-138AG,2026-07-12T06:09:45.622656,13.19725080,.00022,87.9192,299.9737,111.2073,248.9295,0,U,54143,999,18013,-.44218E-3,-.164E-5,0
ONEWEB-0526,2022-138AH,2026-07-12T14:14:14.106048,13.19723223,.0002125,87.9193,299.9078,104.0128,256.1241,0,U,54144,999,18015,-.19064568E-3,-.63E-6,0
ONEWEB-0529,2022-138AJ,2026-07-12T05:12:55.407744,13.19725922,.0001964,87.9178,299.9914,106.9649,253.1699,0,U,54145,999,18012,-.14039E-3,-.43E-6,0
ONEWEB-0531,2022-138AK,2026-07-12T03:46:04.738656,13.20773493,.00026957,87.9186,269.4593,82.5976,277.5464,0,U,54146,999,18260,.2108515E-3,.99E-6,0
ONEWEB-0535,2022-138AL,2026-07-12T06:00:39.864960,13.19726639,.0001968,87.9197,299.9695,93.0348,267.1010,0,U,54147,999,18014,.55007E-4,.35E-6,0
ONEWEB-0536,2022-138AM,2026-07-12T14:21:13.493376,13.20772833,.00028112,87.9174,269.3914,84.1899,275.9555,0,U,54148,999,18265,-.37442984E-4,-.2E-7,0
ONEWEB-0527,2022-166A,2026-07-12T12:50:18.884256,13.21827284,.00021318,87.9236,238.9522,97.9354,262.2022,0,U,54642,999,17488,.15506436E-3,.77E-6,0
ONEWEB-0528,2022-166B,2026-07-12T12:51:31.404960,13.21825889,.00021529,87.9239,238.9547,103.1151,257.0223,0,U,54643,999,17489,.20821845E-3,.99E-6,0
ONEWEB-0539,2022-166C,2026-07-12T13:46:00.178752,13.21823632,.00018928,87.9237,238.9221,94.5032,265.6319,0,U,54644,999,17489,.22291844E-3,.105E-5,0
ONEWEB-0540,2022-166D,2026-07-12T13:55:53.931648,13.21824090,.00019195,87.9229,238.9485,94.7183,265.4171,0,U,54645,999,17488,-.23204414E-3,-.83E-6,0
ONEWEB-0542,2022-166E,2026-07-12T12:11:33.681408,13.21825789,.00017363,87.9239,238.9334,91.5085,268.6248,0,U,54646,999,17488,.533135E-5,.15E-6,0
ONEWEB-0545,2022-166F,2026-07-12T13:09:42.021792,13.21825761,.00015816,87.9235,238.9345,86.5396,273.5919,0,U,54647,999,17485,.10290781E-3,.56E-6,0
ONEWEB-0580,2022-166G,2026-07-12T12:33:19.658880,13.21823669,.00018659,87.9236,238.9391,84.8316,275.3031,0,U,54648,999,17489,.12122456E-3,.63E-6,0
ONEWEB-0582,2022-166H,2026-07-12T13:33:52.260480,13.21845575,.00012744,87.9190,238.9274,106.9507,253.1767,0,U,54649,999,17487,.54565377E-2,.2268E-4,0
ONEWEB-0583,2022-166J,2026-07-12T13:50:52.626336,13.21825578,.00019328,87.9231,238.9448,94.1194,266.0161,0,U,54650,999,17488,-.1222006E-3,-.37E-6,0
ONEWEB-0584,2022-166K,2026-07-12T12:30:55.360512,13.21824764,.00020734,87.9238,238.9398,95.5797,264.5573,0,U,54651,999,17486,.11498896E-3,.61E-6,0
ONEWEB-0585,2022-166L,2026-07-12T13:04:49.122336,13.21823682,.00024736,87.9253,238.9216,91.4713,268.6705,0,U,54652,999,17487,.18241505E-3,.88E-6,0
ONEWEB-0586,2022-166M,2026-07-12T13:24:12.428352,13.21835719,.00021781,87.9257,238.9436,89.2480,270.8904,0,U,54653,999,17487,-.1111202E-2,-.446E-5,0
ONEWEB-0587,2022-166N,2026-07-12T11:49:45.994944,13.21825270,.00023652,87.9244,238.9355,101.7209,258.4191,0,U,54654,999,17502,-.12381898E-3,-.38E-6,0
ONEWEB-0589,2022-166P,2026-07-12T13:19:23.358144,13.21825540,.00015295,87.9231,238.9323,73.6759,286.4543,0,U,54655,999,17489,.82782375E-4,.47E-6,0
ONEWEB-0590,2022-166Q,2026-07-12T13:55:30.087840,13.21825790,.00023589,87.9240,238.9201,84.8292,275.3111,0,U,54656,999,17488,.71311207E-4,.42E-6,0
ONEWEB-0591,2022-166R,2026-07-12T12:23:38.344992,13.21828589,.0002074,87.9235,238.9448,94.2006,265.9365,0,U,54657,999,17490,.14616086E-3,.73E-6,0
ONEWEB-0592,2022-166S,2026-07-12T12:28:29.610624,13.21823717,.00020279,87.9242,238.9245,95.9543,264.1822,0,U,54658,999,17478,.80017962E-4,.46E-6,0
ONEWEB-0593,2022-166T,2026-07-12T12:59:59.998560,13.21825941,.00019043,87.9237,238.9302,97.4417,262.6933,0,U,54659,999,17489,.16427574E-3,.81E-6,0
ONEWEB-0594,2022-166U,2026-07-12T13:29:03.357888,13.21824354,.00021557,87.9237,238.9418,101.6937,258.4439,0,U,54660,999,17491,.62901964E-4,.39E-6,0
ONEWEB-0595,2022-166V,2026-07-12T12:55:09.785280,13.21825677,.00022987,87.9240,238.9303,97.6702,262.4693,0,U,54661,999,17488,.12449208E-3,.64E-6,0
ONEWEB-0596,2022-166W,2026-07-12T14:07:48.152064,13.21823837,.00021254,87.9238,238.9289,96.6946,263.4430,0,U,54662,999,17489,.20216731E-4,.21E-6,0
