ONEWEB-0522             
1 54140U 22138AD  26193.23781258  .00002136  00000+0  53012-2 0  9991
2 54140  87.9187 299.9748 0002520 104.5299 255.6113 13.19745780180112
ONEWEB-0523             
1 54141U 22138AE  26193.18056998  .00000047  00000+0  84651-4 0  9996
2 54141  87.9187 269.4615 0002355  81.1786 278.9614 13.20772709182608
ONEWEB-0524             
1 54142U 22138AF  26193.54925763  .00000139  00000+0  30932-3 0  9996
2 54142  87.9191 269.3841 0002942  93.4917 266.6553 13.20772708182658
ONEWEB-0525             
1 54143U 22138AG  26193.25677804 -.00000164  00000+0 -44218-3 0  9997
2 54143  87.9192 299.9737 0002200 111.2073 248.9295 13.19725080180138
ONEWEB-0526             
1 54144U 22138AH  26193.59321882 -.00000063  00000+0 -19065-3 0  9997
2 54144  87.9193 299.9078 0002125 104.0128 256.1241 13.19723223180156
ONEWEB-0529             
1 54145U 22138AJ  26193.21730796 -.00000043  00000+0 -14039-3 0  9999
2 54145  87.9178 299.9914 0001964 106.9649 253.1699 13.19725922180127
ONEWEB-0531             
1 54146U 22138AK  26193.15699929  .00000099  00000+0  21085-3 0  9993
2 54146  87.9186 269.4593 0002695  82.5976 277.5464 13.20773493182609
ONEWEB-0535             
1 54147U 22138AL  26193.25046140  .00000035  00000+0  55007-4 0  9998
2 54147  87.9197 299.9695 0001968  93.0348 267.1010 13.19726639180142
ONEWEB-0536             
1 54148U 22138AM  26193.59807284 -.00000002  00000+0 -37443-4 0  9990
2 54148  87.9174 269.3914 0002811  84.1899 275.9555 13.20772833182651
ONEWEB-0527             
1 54642U 22166A   26193.53494079  .00000077  00000+0  15506-3 0  9993
2 54642  87.9236 238.9522 0002131  97.9354 262.2022 13.21827284174885
ONEWEB-0528             
1 54643U 22166B   26193.53578015  .00000099  00000+0  20822-3 0  9998
2 54643  87.9239 238.9547 0002152 103.1151 257.0223 13.21825889174899
ONEWEB-0539             
1 54644U 22166C   26193.57361318  .00000105  00000+0  22292-3 0  9990
2 54644  87.9237 238.9221 0001892  94.5032 265.6319 13.21823632174893
ONEWEB-0540             
1 54645U 22166D   26193.58048532 -.00000083  00000+0 -23204-3 0  9993
2 54645  87.9229 238.9485 0001919  94.7183 265.4171 13.21824090174888
ONEWEB-0542             
1 54646U 22166E   26193.50802872  .00000015  00000+0  53314-5 0  9991
2 54646  87.9239 238.9334 0001736  91.5085 268.6248 13.21825789174882
ONEWEB-0545             
1 54647U 22166F   26193.54840303  .00000056  00000+0  10291-3 0  9997
2 54647  87.9235 238.9345 0001581  86.5396 273.5919 13.21825761174855
ONEWEB-0580             
1 54648U 22166G   26193.52314420  .00000063  00000+0  12122-3 0  9995
2 54648  87.9236 238.9391 0001865  84.8316 275.3031 13.21823669174890
ONEWEB-0582             
1 54649U 22166H   26193.56518820  .00002268  00000+0  54565-2 0  9995
2 54649  87.9190 238.9274 0001274 106.9507 253.1767 13.21845575174870
ONEWEB-0583             
1 54650U 22166J   26193.57699799 -.00000037  00000+0 -12220-3 0  9990
2 54650  87.9231 238.9448 0001932  94.1194 266.0161 13.21825578174885
ONEWEB-0584             
1 54651U 22166K   26193.52147408  .00000061  00000+0  11499-3 0  9993
2 54651  87.9238 238.9398 0002073  95.5797 264.5573 13.21824764174862
ONEWEB-0585             
1 54652U 22166L   26193.54501299  .00000088  00000+0  18242-3 0  9990
2 54652  87.9253 238.9216 0002473  91.4713 268.6705 13.21823682174877
ONEWEB-0586             
1 54653U 22166M   26193.55847718 -.00000446  00000+0 -11112-2 0  9999
2 54653  87.9257 238.9436 0002178  89.2480 270.8904 13.21835719174874
ONEWEB-0587             
1 54654U 22166N   26193.49289346 -.00000038  00000+0 -12382-3 0  9998
2 54654  87.9244 238.9355 0002365 101.7209 258.4191 13.21825270175027
ONEWEB-0589             
1 54655U 22166P   26193.55513146  .00000047  00000+0  82782-4 0  9994
2 54655  87.9231 238.9323 0001529  73.6759 286.4543 13.21825540174893
ONEWEB-0590             
1 54656U 22166Q   26193.58020935  .00000042  00000+0  71311-4 0  9998
2 54656  87.9240 238.9201 0002358  84.8292 275.3111 13.21825790174880
ONEWEB-0591             
1 54657U 22166R   26193.51641603  .00000073  00000+0  14616-3 0  9991
2 54657  87.9235 238.9448 0002074  94.2006 265.9365 13.21828589174909
ONEWEB-0592             
1 54658U 22166S   26193.51978716  .00000046  00000+0  80018-4 0  9990
2 54658  87.9242 238.9245 0002027  95.9543 264.1822 13.21823717174788
ONEWEB-0593             
1 54659U 22166T   26193.54166665  .00000081  00000+0  16428-3 0  9998
2 54659  87.9237 238.9302 0001904  97.4417 262.6933 13.21825941174896
ONEWEB-0594             
1 54660U 22166U   26193.56184442  .00000039  00000+0  62902-4 0  9997
2 54660  87.9237 238.9418 0002155 101.6937 258.4439 13.21824354174914
ONEWEB-0595             
1 54661U 22166V   26193.53830770  .00000064  00000+0  12449-3 0  9995
2 54661  87.9240 238.9303 0002298  97.6702 262.4693 13.21825677174886
ONEWEB-0596             
1 54662U 22166W   26193.58875176  .00000021  00000+0  20217-4 0  9996
2 54662  87.9238 238.9289 0002125  96.6946 263.4430 13.21823837174892
